ONEWEB-0618             
1 55159U 23004V   26064.92277350  .00007393  00000+0  42948-3 0  9998
2 55159  86.9062 219.5043 0011420 325.1134  34.9356 15.11901847166650
ONEWEB-0619             
1 55160U 23004W   26064.90191504  .00000003  00000+0 -25369-4 0  9995
2 55160  87.9153  26.3492 0001418  75.8931 284.2358 13.17648670153997
ONEWEB-0620             
1 55161U 23004X   26064.98499441  .00000225  00000+0  59763-3 0  9994
2 55161  87.8855  41.5996 0002113  82.3973 277.7394 13.11417457152308
ONEWEB-0621             
1 55162U 23004Y   26064.93582524  .00000124  00000+0  31326-3 0  9998
2 55162  87.8866  41.5890 0001734  77.4955 282.6367 13.11415293152274
ONEWEB-0622             
1 55163U 23004Z   26064.94089913  .00000045  00000+0  90739-4 0  9990
2 55163  87.8859  41.5903 0002199  63.9055 296.2299 13.11415638152266
ONEWEB-0623             
1 55164U 23004AA  26064.89685226  .00000000  00000+0 -33612-4 0  9993
2 55164  87.9147  26.3920 0001679  59.4095 300.7202 13.17648883153985
ONEWEB-0624             
1 55165U 23004AB  26064.85531861  .00000000  00000+0 -35672-4 0  9993
2 55165  87.8993  11.1128 0001768  72.5623 287.5699 13.12921928154519
ONEWEB-0625             
1 55166U 23004AC  26064.88672780  .00000045  00000+0  81807-4 0  9992
2 55166  87.9143  26.3883 0001723  84.6177 275.5151 13.17649281153976
ONEWEB-0626             
1 55167U 23004AD  26064.87660464  .00000137  00000+0  31866-3 0  9999
2 55167  87.9144  26.3904 0002303  86.1140 274.0255 13.17649228153974
ONEWEB-0627             
1 55168U 23004AE  26064.94072835 -.00000034  00000+0 -12109-3 0  9994
2 55168  87.9146  26.3776 0001704  65.4175 294.7134 13.17649733153983
ONEWEB-0628             
1 55169U 23004AF  26064.87495297 -.00000358  00000+0 -10297-2 0  9992
2 55169  87.8993  11.1568 0001564  56.1199 304.0078 13.12442289154481
ONEWEB-0629             
1 55170U 23004AG  26064.91623342 -.00000200  00000+0 -54799-3 0  9995
2 55170  87.9137  26.3801 0001505  77.6806 282.4494 13.17648817153985
ONEWEB-0631             
1 55171U 23004AH  26064.75734724  .00000079  00000+0  16780-3 0  9995
2 55171  87.9250 355.9743 0002311  75.8335 284.3054 13.18682940156040
ONEWEB-0709             
1 55172U 23004AJ  26064.97481928 -.00000121  00000+0 -37800-3 0  9991
2 55172  87.8851  41.6056 0002662  92.1667 267.9766 13.11417628152340
ONEWEB-0710             
1 55173U 23004AK  26064.93058337 -.00000175  00000+0 -48360-3 0  9994
2 55173  87.9143  26.3721 0001898  75.8339 284.3003 13.17648383153987
ONEWEB-0711             
1 55174U 23004AL  26064.94599063 -.00000184  00000+0 -55634-3 0  9994
2 55174  87.8862  41.5926 0001924  60.3770 299.7550 13.11414603152301
ONEWEB-0713             
1 55175U 23004AM  26064.88834094 -.00000412  00000+0 -11981-2 0  9994
2 55175  87.8861  41.6038 0001857  71.2957 288.8373 13.11417103152286
