[{"OBJECT_NAME":"ONEWEB-0618","OBJECT_ID":"2023-004V","EPOCH":"2026-03-05T22:08:47.630400","MEAN_MOTION":15.11901847,"ECCENTRICITY":0.00114204,"INCLINATION":86.9062,"RA_OF_ASC_NODE":219.5043,"ARG_OF_PERICENTER":325.1134,"MEAN_ANOMALY":34.9356,"EPHEMERIS_TYPE":0,"CLASSIFICATION_TYPE":"U","NORAD_CAT_ID":55159,"ELEMENT_SET_NO":999,"REV_AT_EPOCH":16665,"BSTAR":0.00042948282,"MEAN_MOTION_DOT":7.393e-5,"MEAN_MOTION_DDOT":0},{"OBJECT_NAME":"ONEWEB-0619","OBJECT_ID":"2023-004W","EPOCH":"2026-03-05T21:38:45.459456","MEAN_MOTION":13.1764867,"ECCENTRICITY":0.00014188,"INCLINATION":87.9153,"RA_OF_ASC_NODE":26.3492,"ARG_OF_PERICENTER":75.8931,"MEAN_ANOMALY":284.2358,"EPHEMERIS_TYPE":0,"CLASSIFICATION_TYPE":"U","NORAD_CAT_ID":55160,"ELEMENT_SET_NO":999,"REV_AT_EPOCH":15399,"BSTAR":-2.5369007e-5,"MEAN_MOTION_DOT":3.0e-8,"MEAN_MOTION_DDOT":0},{"OBJECT_NAME":"ONEWEB-0620","OBJECT_ID":"2023-004X","EPOCH":"2026-03-05T23:38:23.517024","MEAN_MOTION":13.11417457,"ECCENTRICITY":0.00021132,"INCLINATION":87.8855,"RA_OF_ASC_NODE":41.5996,"ARG_OF_PERICENTER":82.3973,"MEAN_ANOMALY":277.7394,"EPHEMERIS_TYPE":0,"CLASSIFICATION_TYPE":"U","NORAD_CAT_ID":55161,"ELEMENT_SET_NO":999,"REV_AT_EPOCH":15230,"BSTAR":0.00059763458,"MEAN_MOTION_DOT":2.25e-6,"MEAN_MOTION_DDOT":0},{"OBJECT_NAME":"ONEWEB-0621","OBJECT_ID":"2023-004Y","EPOCH":"2026-03-05T22:27:35.300736","MEAN_MOTION":13.11415293,"ECCENTRICITY":0.00017349,"INCLINATION":87.8866,"RA_OF_ASC_NODE":41.589,"ARG_OF_PERICENTER":77.4955,"MEAN_ANOMALY":282.6367,"EPHEMERIS_TYPE":0,"CLASSIFICATION_TYPE":"U","NORAD_CAT_ID":55162,"ELEMENT_SET_NO":999,"REV_AT_EPOCH":15227,"BSTAR":0.0003132611,"MEAN_MOTION_DOT":1.24e-6,"MEAN_MOTION_DDOT":0},{"OBJECT_NAME":"ONEWEB-0622","OBJECT_ID":"2023-004Z","EPOCH":"2026-03-05T22:34:53.684832","MEAN_MOTION":13.11415638,"ECCENTRICITY":0.00021993,"INCLINATION":87.8859,"RA_OF_ASC_NODE":41.5903,"ARG_OF_PERICENTER":63.9055,"MEAN_ANOMALY":296.2299,"EPHEMERIS_TYPE":0,"CLASSIFICATION_TYPE":"U","NORAD_CAT_ID":55163,"ELEMENT_SET_NO":999,"REV_AT_EPOCH":15226,"BSTAR":9.0738546e-5,"MEAN_MOTION_DOT":4.5e-7,"MEAN_MOTION_DDOT":0},{"OBJECT_NAME":"ONEWEB-0623","OBJECT_ID":"2023-004AA","EPOCH":"2026-03-05T21:31:28.035264","MEAN_MOTION":13.17648883,"ECCENTRICITY":0.00016798,"INCLINATION":87.9147,"RA_OF_ASC_NODE":26.392,"ARG_OF_PERICENTER":59.4095,"MEAN_ANOMALY":300.7202,"EPHEMERIS_TYPE":0,"CLASSIFICATION_TYPE":"U","NORAD_CAT_ID":55164,"ELEMENT_SET_NO":999,"REV_AT_EPOCH":15398,"BSTAR":-3.361238e-5,"MEAN_MOTION_DOT":0,"MEAN_MOTION_DDOT":0},{"OBJECT_NAME":"ONEWEB-0624","OBJECT_ID":"2023-004AB","EPOCH":"2026-03-05T20:31:39.527904","MEAN_MOTION":13.12921928,"ECCENTRICITY":0.00017684,"INCLINATION":87.8993,"RA_OF_ASC_NODE":11.1128,"ARG_OF_PERICENTER":72.5623,"MEAN_ANOMALY":287.5699,"EPHEMERIS_TYPE":0,"CLASSIFICATION_TYPE":"U","NORAD_CAT_ID":55165,"ELEMENT_SET_NO":999,"REV_AT_EPOCH":15451,"BSTAR":-3.5672131e-5,"MEAN_MOTION_DOT":0,"MEAN_MOTION_DDOT":0},{"OBJECT_NAME":"ONEWEB-0625","OBJECT_ID":"2023-004AC","EPOCH":"2026-03-05T21:16:53.281920","MEAN_MOTION":13.17649281,"ECCENTRICITY":0.00017237,"INCLINATION":87.9143,"RA_OF_ASC_NODE":26.3883,"ARG_OF_PERICENTER":84.6177,"MEAN_ANOMALY":275.5151,"EPHEMERIS_TYPE":0,"CLASSIFICATION_TYPE":"U","NORAD_CAT_ID":55166,"ELEMENT_SET_NO":999,"REV_AT_EPOCH":15397,"BSTAR":8.1806721e-5,"MEAN_MOTION_DOT":4.5e-7,"MEAN_MOTION_DDOT":0},{"OBJECT_NAME":"ONEWEB-0626","OBJECT_ID":"2023-004AD","EPOCH":"2026-03-05T21:02:18.640896","MEAN_MOTION":13.17649228,"ECCENTRICITY":0.00023031,"INCLINATION":87.9144,"RA_OF_ASC_NODE":26.3904,"ARG_OF_PERICENTER":86.114,"MEAN_ANOMALY":274.0255,"EPHEMERIS_TYPE":0,"CLASSIFICATION_TYPE":"U","NORAD_CAT_ID":55167,"ELEMENT_SET_NO":999,"REV_AT_EPOCH":15397,"BSTAR":0.00031866021,"MEAN_MOTION_DOT":1.37e-6,"MEAN_MOTION_DDOT":0},{"OBJECT_NAME":"ONEWEB-0627","OBJECT_ID":"2023-004AE","EPOCH":"2026-03-05T22:34:38.929440","MEAN_MOTION":13.17649733,"ECCENTRICITY":0.00017048,"INCLINATION":87.9146,"RA_OF_ASC_NODE":26.3776,"ARG_OF_PERICENTER":65.4175,"MEAN_ANOMALY":294.7134,"EPHEMERIS_TYPE":0,"CLASSIFICATION_TYPE":"U","NORAD_CAT_ID":55168,"ELEMENT_SET_NO":999,"REV_AT_EPOCH":15398,"BSTAR":-0.00012108571,"MEAN_MOTION_DOT":-3.4e-7,"MEAN_MOTION_DDOT":0},{"OBJECT_NAME":"ONEWEB-0628","OBJECT_ID":"2023-004AF","EPOCH":"2026-03-05T20:59:55.936608","MEAN_MOTION":13.12442289,"ECCENTRICITY":0.00015646,"INCLINATION":87.8993,"RA_OF_ASC_NODE":11.1568,"ARG_OF_PERICENTER":56.1199,"MEAN_ANOMALY":304.0078,"EPHEMERIS_TYPE":0,"CLASSIFICATION_TYPE":"U","NORAD_CAT_ID":55169,"ELEMENT_SET_NO":999,"REV_AT_EPOCH":15448,"BSTAR":-0.0010297293,"MEAN_MOTION_DOT":-3.58e-6,"MEAN_MOTION_DDOT":0},{"OBJECT_NAME":"ONEWEB-0629","OBJECT_ID":"2023-004AG","EPOCH":"2026-03-05T21:59:22.567488","MEAN_MOTION":13.17648817,"ECCENTRICITY":0.00015055,"INCLINATION":87.9137,"RA_OF_ASC_NODE":26.3801,"ARG_OF_PERICENTER":77.6806,"MEAN_ANOMALY":282.4494,"EPHEMERIS_TYPE":0,"CLASSIFICATION_TYPE":"U","NORAD_CAT_ID":55170,"ELEMENT_SET_NO":999,"REV_AT_EPOCH":15398,"BSTAR":-0.0005479929,"MEAN_MOTION_DOT":-2.0e-6,"MEAN_MOTION_DDOT":0},{"OBJECT_NAME":"ONEWEB-0631","OBJECT_ID":"2023-004AH","EPOCH":"2026-03-05T18:10:34.801536","MEAN_MOTION":13.1868294,"ECCENTRICITY":0.00023116,"INCLINATION":87.925,"RA_OF_ASC_NODE":355.9743,"ARG_OF_PERICENTER":75.8335,"MEAN_ANOMALY":284.3054,"EPHEMERIS_TYPE":0,"CLASSIFICATION_TYPE":"U","NORAD_CAT_ID":55171,"ELEMENT_SET_NO":999,"REV_AT_EPOCH":15604,"BSTAR":0.00016779868,"MEAN_MOTION_DOT":7.9e-7,"MEAN_MOTION_DDOT":0},{"OBJECT_NAME":"ONEWEB-0709","OBJECT_ID":"2023-004AJ","EPOCH":"2026-03-05T23:23:44.385792","MEAN_MOTION":13.11417628,"ECCENTRICITY":0.0002662,"INCLINATION":87.8851,"RA_OF_ASC_NODE":41.6056,"ARG_OF_PERICENTER":92.1667,"MEAN_ANOMALY":267.9766,"EPHEMERIS_TYPE":0,"CLASSIFICATION_TYPE":"U","NORAD_CAT_ID":55172,"ELEMENT_SET_NO":999,"REV_AT_EPOCH":15234,"BSTAR":-0.00037799613,"MEAN_MOTION_DOT":-1.21e-6,"MEAN_MOTION_DDOT":0},{"OBJECT_NAME":"ONEWEB-0710","OBJECT_ID":"2023-004AK","EPOCH":"2026-03-05T22:20:02.403168","MEAN_MOTION":13.17648383,"ECCENTRICITY":0.00018983,"INCLINATION":87.9143,"RA_OF_ASC_NODE":26.3721,"ARG_OF_PERICENTER":75.8339,"MEAN_ANOMALY":284.3003,"EPHEMERIS_TYPE":0,"CLASSIFICATION_TYPE":"U","NORAD_CAT_ID":55173,"ELEMENT_SET_NO":999,"REV_AT_EPOCH":15398,"BSTAR":-0.00048359975,"MEAN_MOTION_DOT":-1.75e-6,"MEAN_MOTION_DDOT":0},{"OBJECT_NAME":"ONEWEB-0711","OBJECT_ID":"2023-004AL","EPOCH":"2026-03-05T22:42:13.590432","MEAN_MOTION":13.11414603,"ECCENTRICITY":0.0001924,"INCLINATION":87.8862,"RA_OF_ASC_NODE":41.5926,"ARG_OF_PERICENTER":60.377,"MEAN_ANOMALY":299.755,"EPHEMERIS_TYPE":0,"CLASSIFICATION_TYPE":"U","NORAD_CAT_ID":55174,"ELEMENT_SET_NO":999,"REV_AT_EPOCH":15230,"BSTAR":-0.00055633809,"MEAN_MOTION_DOT":-1.84e-6,"MEAN_MOTION_DDOT":0},{"OBJECT_NAME":"ONEWEB-0713","OBJECT_ID":"2023-004AM","EPOCH":"2026-03-05T21:19:12.657216","MEAN_MOTION":13.11417103,"ECCENTRICITY":0.00018579,"INCLINATION":87.8861,"RA_OF_ASC_NODE":41.6038,"ARG_OF_PERICENTER":71.2957,"MEAN_ANOMALY":288.8373,"EPHEMERIS_TYPE":0,"CLASSIFICATION_TYPE":"U","NORAD_CAT_ID":55175,"ELEMENT_SET_NO":999,"REV_AT_EPOCH":15228,"BSTAR":-0.0011981411,"MEAN_MOTION_DOT":-4.12e-6,"MEAN_MOTION_DDOT":0}]
